[{"OBJECT_NAME":"STARLINK-36076","OBJECT_ID":"2025-270A","EPOCH":"2026-03-08T23:59:56.709888","MEAN_MOTION":15.27585628,"ECCENTRICITY":5.93e-5,"INCLINATION":42.9986,"RA_OF_ASC_NODE":59.7942,"ARG_OF_PERICENTER":258.8349,"MEAN_ANOMALY":101.2436,"EPHEMERIS_TYPE":0,"CLASSIFICATION_TYPE":"U","NORAD_CAT_ID":66588,"ELEMENT_SET_NO":999,"REV_AT_EPOCH":1760,"BSTAR":0.00098624046,"MEAN_MOTION_DOT":0.00026981,"MEAN_MOTION_DDOT":0},{"OBJECT_NAME":"POEM","OBJECT_ID":"2022-072E","EPOCH":"2026-03-08T08:06:01.299456","MEAN_MOTION":15.22764653,"ECCENTRICITY":0.00236837,"INCLINATION":9.9515,"RA_OF_ASC_NODE":116.6548,"ARG_OF_PERICENTER":142.2805,"MEAN_ANOMALY":217.9074,"EPHEMERIS_TYPE":0,"CLASSIFICATION_TYPE":"U","NORAD_CAT_ID":52939,"ELEMENT_SET_NO":999,"REV_AT_EPOCH":20410,"BSTAR":0.00045784559,"MEAN_MOTION_DOT":0.00012084,"MEAN_MOTION_DDOT":0}]
